MTI                     
1 26102U 00014A   20130.19215349  .00004336  00000-0  64891-4 0  9994
2 26102  97.5099  10.4213 0008717  22.1369 338.0247 15.55545721118411
CFESAT                  
1 30777U 07006F   20130.49576143  .00001855  00000-0  52197-4 0  9999
2 30777  35.4244 203.5490 0005321 206.7382 153.3071 15.36550933730459
SPIRALE A               
1 33751U 09008C   20130.43295688  .00000064  00000-0  49827-3 0  9990
2 33751   2.0291 249.8502 5378778 259.9442  38.3516  4.58738867159495
SPIRALE B               
1 33752U 09008D   20129.05801188  .00002859  00000-0  52365-3 0  9990
2 33752   1.8268 166.9062 6918872  53.3262 352.2579  2.75667985103685
SAPPHIRE                
1 39088U 13009C   20130.34632634 -.00000005  00000-0  13477-4 0  9990
2 39088  98.4731 332.5253 0012256  46.2001 314.0195 14.34207714376871
